start=new Date('2022-07-11T00:00:00.000Z').valueOf();
sats=[{"OBJECT_NAME":"STARLINK-1347","GP_ID":"207872337","MEAN_ANOMALY":"282.5695","MEAN_ELEMENT_THEORY":"SGP4","RA_OF_ASC_NODE":"322.6849","MEAN_MOTION":"15.06378560","OBJECT_ID":"2020-025BH","OBJECT_TYPE":"PAYLOAD","LAUNCH_DATE":"2020-04-22","RCS_SIZE":"LARGE","REF_FRAME":"TEME","SEMIMAJOR_AXIS":"6925.414","PERIOD":"95.594","CENTER_NAME":"EARTH","ELEMENT_SET_NO":"999","COUNTRY_CODE":"US","INCLINATION":"53.0547","TIME_SYSTEM":"UTC","FILE":"3511318","REV_AT_EPOCH":"12384","TLE_LINE2":"2 45586  53.0547 322.6849 0001416  77.5453 282.5695 15.06378560123847","SITE":"AFETR","MEAN_MOTION_DDOT":"0.0000000000000","DECAY_DATE":null,"TLE_LINE1":"1 45586U 20025BH  22191.79284968 -.00002639  00000-0 -15840-3 0  9998","NORAD_CAT_ID":"45586","EPOCH":"2022-07-10T19:01:42.212352","BSTAR":"-0.00015840000000","CLASSIFICATION_TYPE":"U","ARG_OF_PERICENTER":"77.5453","EPHEMERIS_TYPE":"0","MEAN_MOTION_DOT":"-0.00002639","APOAPSIS":"548.260","PERIAPSIS":"546.299","ECCENTRICITY":"0.00014160"},{"ECCENTRICITY":"0.00013210","PERIAPSIS":"546.305","MEAN_MOTION_DOT":"0.00003170","APOAPSIS":"548.134","EPOCH":"2022-07-10T19:54:46.234656","EPHEMERIS_TYPE":"0","ARG_OF_PERICENTER":"81.9201","BSTAR":"0.00023164000000","CLASSIFICATION_TYPE":"U","SITE":"AFETR","MEAN_MOTION_DDOT":"0.0000000000000","TLE_LINE1":"1 45587U 20025BJ  22191.82970179  .00003170  00000-0  23164-3 0  9996","NORAD_CAT_ID":"45587","DECAY_DATE":null,"COUNTRY_CODE":"US","INCLINATION":"53.0552","TIME_SYSTEM":"UTC","TLE_LINE2":"2 45587  53.0552 322.5077 0001321  81.9201 278.1938 15.06398068123869","FILE":"3511318","REV_AT_EPOCH":"12386","LAUNCH_DATE":"2020-04-22","RCS_SIZE":"LARGE","OBJECT_TYPE":"PAYLOAD","OBJECT_ID":"2020-025BJ","CENTER_NAME":"EARTH","PERIOD":"95.592","SEMIMAJOR_AXIS":"6925.354","ELEMENT_SET_NO":"999","REF_FRAME":"TEME","RA_OF_ASC_NODE":"322.5077","MEAN_MOTION":"15.06398068","GP_ID":"207873081","OBJECT_NAME":"STARLINK-1349","MEAN_ELEMENT_THEORY":"SGP4","MEAN_ANOMALY":"278.1938"},{"OBJECT_NAME":"STARLINK-1360","GP_ID":"207871836","MEAN_ELEMENT_THEORY":"SGP4","MEAN_ANOMALY":"263.5968","RA_OF_ASC_NODE":"322.9155","MEAN_MOTION":"15.06386330","OBJECT_ID":"2020-025BK","OBJECT_TYPE":"PAYLOAD","LAUNCH_DATE":"2020-04-22","RCS_SIZE":"LARGE","REF_FRAME":"TEME","PERIOD":"95.593","CENTER_NAME":"EARTH","SEMIMAJOR_AXIS":"6925.390","ELEMENT_SET_NO":"999","INCLINATION":"53.0547","COUNTRY_CODE":"US","TIME_SYSTEM":"UTC","FILE":"3511318","REV_AT_EPOCH":"12384","TLE_LINE2":"2 45588  53.0547 322.9155 0001363  96.5176 263.5968 15.06386330123842","SITE":"AFETR","MEAN_MOTION_DDOT":"0.0000000000000","DECAY_DATE":null,"TLE_LINE1":"1 45588U 20025BK  22191.74124632 -.00002655  00000-0 -15950-3 0  9996","NORAD_CAT_ID":"45588","EPOCH":"2022-07-10T17:47:23.682048","BSTAR":"-0.00015950000000","CLASSIFICATION_TYPE":"U","EPHEMERIS_TYPE":"0","ARG_OF_PERICENTER":"96.5176","MEAN_MOTION_DOT":"-0.00002655","APOAPSIS":"548.199","PERIAPSIS":"546.312","ECCENTRICITY":"0.00013630"},{"GP_ID":"207872086","OBJECT_NAME":"STARLINK-1364","MEAN_ELEMENT_THEORY":"SGP4","MEAN_ANOMALY":"269.2309","MEAN_MOTION":"15.06382038","RA_OF_ASC_NODE":"322.9227","LAUNCH_DATE":"2020-04-22","RCS_SIZE":"LARGE","OBJECT_ID":"2020-025BL","OBJECT_TYPE":"PAYLOAD","ELEMENT_SET_NO":"999","SEMIMAJOR_AXIS":"6925.404","PERIOD":"95.593","CENTER_NAME":"EARTH","REF_FRAME":"TEME","TIME_SYSTEM":"UTC","INCLINATION":"53.0550","COUNTRY_CODE":"US","TLE_LINE2":"2 45589  53.0550 322.9227 0001276  90.8826 269.2309 15.06382038123842","REV_AT_EPOCH":"12384","FILE":"3511318","SITE":"AFETR","MEAN_MOTION_DDOT":"0.0000000000000","NORAD_CAT_ID":"45589","TLE_LINE1":"1 45589U 20025BL  22191.73755789 -.00002805  00000-0 -16956-3 0  9993","DECAY_DATE":null,"EPOCH":"2022-07-10T17:42:05.001696","EPHEMERIS_TYPE":"0","ARG_OF_PERICENTER":"90.8826","BSTAR":"-0.00016956000000","CLASSIFICATION_TYPE":"U","MEAN_MOTION_DOT":"-0.00002805","APOAPSIS":"548.152","ECCENTRICITY":"0.00012760","PERIAPSIS":"546.385"},{"ARG_OF_PERICENTER":"73.3739","EPHEMERIS_TYPE":"0","BSTAR":"0.00018161000000","CLASSIFICATION_TYPE":"U","EPOCH":"2022-07-10T19:40:11.403552","NORAD_CAT_ID":"45590","TLE_LINE1":"1 45590U 20025BM  22191.81957643  .00002423  00000-0  18161-3 0  9991","DECAY_DATE":null,"MEAN_MOTION_DDOT":"0.0000000000000","SITE":"AFETR","ECCENTRICITY":"0.00015520","PERIAPSIS":"546.226","APOAPSIS":"548.375","MEAN_MOTION_DOT":"0.00002423","MEAN_MOTION":"15.06371639","RA_OF_ASC_NODE":"352.5646","MEAN_ANOMALY":"286.7420","MEAN_ELEMENT_THEORY":"SGP4","GP_ID":"207872837","OBJECT_NAME":"STARLINK-1365","TLE_LINE2":"2 45590  53.0553 352.5646 0001552  73.3739 286.7420 15.06371639123457","REV_AT_EPOCH":"12345","FILE":"3511318","TIME_SYSTEM":"UTC","INCLINATION":"53.0553","COUNTRY_CODE":"US","ELEMENT_SET_NO":"999","CENTER_NAME":"EARTH","PERIOD":"95.594","SEMIMAJOR_AXIS":"6925.435","REF_FRAME":"TEME","RCS_SIZE":"LARGE","LAUNCH_DATE":"2020-04-22","OBJECT_ID":"2020-025BM","OBJECT_TYPE":"PAYLOAD"},{"ELEMENT_SET_NO":"999","CENTER_NAME":"EARTH","PERIOD":"95.594","SEMIMAJOR_AXIS":"6925.445","REF_FRAME":"TEME","LAUNCH_DATE":"2020-06-04","RCS_SIZE":"LARGE","OBJECT_ID":"2020-035B","OBJECT_TYPE":"PAYLOAD","TLE_LINE2":"2 45658  53.0544 313.2582 0001459  79.2051 280.9102 15.06368601117061","REV_AT_EPOCH":"11706","FILE":"3511318","TIME_SYSTEM":"UTC","COUNTRY_CODE":"US","INCLINATION":"53.0544","MEAN_ANOMALY":"280.9102","MEAN_ELEMENT_THEORY":"SGP4","GP_ID":"207872091","OBJECT_NAME":"STARLINK-1441","MEAN_MOTION":"15.06368601","RA_OF_ASC_NODE":"313.2582","APOAPSIS":"548.320","MEAN_MOTION_DOT":"-0.00000222","ECCENTRICITY":"0.00014590","PERIAPSIS":"546.299","NORAD_CAT_ID":"45658","TLE_LINE1":"1 45658U 20035B   22191.66107721 -.00000222  00000-0  39813-5 0  9999","DECAY_DATE":null,"SITE":"AFETR","MEAN_MOTION_DDOT":"0.0000000000000","EPHEMERIS_TYPE":"0","ARG_OF_PERICENTER":"79.2051","BSTAR":"0.00000398130000","CLASSIFICATION_TYPE":"U","EPOCH":"2022-07-10T15:51:57.070944"},{"MEAN_MOTION":"15.06374797","RA_OF_ASC_NODE":"313.5613","MEAN_ELEMENT_THEORY":"SGP4","MEAN_ANOMALY":"265.9415","OBJECT_NAME":"STARLINK-1442","GP_ID":"207872842","REV_AT_EPOCH":"11704","FILE":"3511318","TLE_LINE2":"2 45659  53.0551 313.5613 0001385  94.1732 265.9415 15.06374797117049","TIME_SYSTEM":"UTC","INCLINATION":"53.0551","COUNTRY_CODE":"US","REF_FRAME":"TEME","ELEMENT_SET_NO":"999","CENTER_NAME":"EARTH","PERIOD":"95.594","SEMIMAJOR_AXIS":"6925.426","OBJECT_ID":"2020-035C","OBJECT_TYPE":"PAYLOAD","LAUNCH_DATE":"2020-06-04","RCS_SIZE":"LARGE","BSTAR":"0.00003747700000","CLASSIFICATION_TYPE":"U","EPHEMERIS_TYPE":"0","ARG_OF_PERICENTER":"94.1732","EPOCH":"2022-07-10T14:20:20.911200","DECAY_DATE":null,"NORAD_CAT_ID":"45659","TLE_LINE1":"1 45659U 20035C   22191.59746425  .00000276  00000-0  37477-4 0  9993","MEAN_MOTION_DDOT":"0.0000000000000","SITE":"AFETR","PERIAPSIS":"546.332","ECCENTRICITY":"0.00013850","APOAPSIS":"548.250","MEAN_MOTION_DOT":"0.00000276"},{"ECCENTRICITY":"0.00013540","PERIAPSIS":"546.364","MEAN_MOTION_DOT":"-0.00004587","APOAPSIS":"548.239","EPOCH":"2022-07-10T14:32:19.975200","ARG_OF_PERICENTER":"78.5180","EPHEMERIS_TYPE":"0","BSTAR":"-0.00028946000000","CLASSIFICATION_TYPE":"U","MEAN_MOTION_DDOT":"0.0000000000000","SITE":"AFETR","TLE_LINE1":"1 45660U 20035D   22191.60578675 -.00004587  00000-0 -28946-3 0  9998","NORAD_CAT_ID":"45660","DECAY_DATE":null,"INCLINATION":"53.0550","COUNTRY_CODE":"US","TIME_SYSTEM":"UTC","TLE_LINE2":"2 45660  53.0550 313.5156 0001354  78.5180 281.5961 15.06371248117050","FILE":"3511318","REV_AT_EPOCH":"11705","LAUNCH_DATE":"2020-06-04","RCS_SIZE":"LARGE","OBJECT_TYPE":"PAYLOAD","OBJECT_ID":"2020-035D","CENTER_NAME":"EARTH","PERIOD":"95.594","SEMIMAJOR_AXIS":"6925.437","ELEMENT_SET_NO":"999","REF_FRAME":"TEME","RA_OF_ASC_NODE":"313.5156","MEAN_MOTION":"15.06371248","GP_ID":"207872587","OBJECT_NAME":"STARLINK-1443","MEAN_ELEMENT_THEORY":"SGP4","MEAN_ANOMALY":"281.5961"},{"TLE_LINE2":"2 45661  53.0553 312.5418 0001525  77.5932 282.5228 15.06380192117086","REV_AT_EPOCH":"11708","FILE":"3511318","TIME_SYSTEM":"UTC","INCLINATION":"53.0553","COUNTRY_CODE":"US","ELEMENT_SET_NO":"999","CENTER_NAME":"EARTH","PERIOD":"95.593","SEMIMAJOR_AXIS":"6925.409","REF_FRAME":"TEME","LAUNCH_DATE":"2020-06-04","RCS_SIZE":"LARGE","OBJECT_ID":"2020-035E","OBJECT_TYPE":"PAYLOAD","MEAN_MOTION":"15.06380192","RA_OF_ASC_NODE":"312.5418","MEAN_ELEMENT_THEORY":"SGP4","MEAN_ANOMALY":"282.5228","GP_ID":"207871341","OBJECT_NAME":"STARLINK-1444","ECCENTRICITY":"0.00015250","PERIAPSIS":"546.218","APOAPSIS":"548.330","MEAN_MOTION_DOT":"-0.00004357","ARG_OF_PERICENTER":"77.5932","EPHEMERIS_TYPE":"0","BSTAR":"-0.00027392000000","CLASSIFICATION_TYPE":"U","EPOCH":"2022-07-10T19:45:29.228544","NORAD_CAT_ID":"45661","TLE_LINE1":"1 45661U 20035E   22191.82325496 -.00004357  00000-0 -27392-3 0  9993","DECAY_DATE":null,"MEAN_MOTION_DDOT":"0.0000000000000","SITE":"AFETR"},{"TIME_SYSTEM":"UTC","COUNTRY_CODE":"US","INCLINATION":"53.0556","REV_AT_EPOCH":"11707","FILE":"3511318","TLE_LINE2":"2 45662  53.0556 312.7587 0001551  68.5641 291.5513 15.06371775117078","OBJECT_TYPE":"PAYLOAD","OBJECT_ID":"2020-035F","LAUNCH_DATE":"2020-06-04","RCS_SIZE":"LARGE","REF_FRAME":"TEME","ELEMENT_SET_NO":"999","CENTER_NAME":"EARTH","PERIOD":"95.594","SEMIMAJOR_AXIS":"6925.435","MEAN_MOTION":"15.06371775","RA_OF_ASC_NODE":"312.7587","OBJECT_NAME":"STARLINK-1445","GP_ID":"207871591","MEAN_ELEMENT_THEORY":"SGP4","MEAN_ANOMALY":"291.5513","PERIAPSIS":"546.226","ECCENTRICITY":"0.00015510","MEAN_MOTION_DOT":"-0.00004500","APOAPSIS":"548.374","EPOCH":"2022-07-10T18:31:10.972128","BSTAR":"-0.00028358000000","CLASSIFICATION_TYPE":"U","ARG_OF_PERICENTER":"68.5641","EPHEMERIS_TYPE":"0","SITE":"AFETR","MEAN_MOTION_DDOT":"0.0000000000000","DECAY_DATE":null,"NORAD_CAT_ID":"45662","TLE_LINE1":"1 45662U 20035F   22191.77165477 -.00004500  00000-0 -28358-3 0  9992"}];
